sat25757
1 25757U 99029B   20046.86196517 -.00000032  00000-0  35258-5 0  9994
2 25757  98.4227 334.1364 0013946 197.8087 162.2621 14.51415036 97609
